start=new Date('2022-07-15T00:00:00.000Z').valueOf();
sats=[{"GP_ID":"208135672","COUNTRY_CODE":"US","RCS_SIZE":"LARGE","MEAN_MOTION_DDOT":"0.0000000000000","SEMIMAJOR_AXIS":"6917.916","INCLINATION":"53.2191","PERIAPSIS":"538.316","OBJECT_NAME":"STARLINK-3311","MEAN_MOTION_DOT":"-0.00001657","REV_AT_EPOCH":"2890","ELEMENT_SET_NO":"999","MEAN_MOTION":"15.08828301","CLASSIFICATION_TYPE":"U","TLE_LINE2":"2 50849  53.2191  46.9281 0002118  74.6509 285.4717 15.08828301 28901","APOAPSIS":"541.246","EPOCH":"2022-07-14T20:36:23.125536","OBJECT_ID":"2022-001AY","REF_FRAME":"TEME","OBJECT_TYPE":"PAYLOAD","EPHEMERIS_TYPE":"0","TLE_LINE1":"1 50849U 22001AY  22195.85860099 -.00001657  00000-0 -86055-4 0  9994","CENTER_NAME":"EARTH","ECCENTRICITY":"0.00021180","RA_OF_ASC_NODE":"46.9281","BSTAR":"-0.00008605500000","LAUNCH_DATE":"2022-01-06","TIME_SYSTEM":"UTC","DECAY_DATE":null,"MEAN_ANOMALY":"285.4717","NORAD_CAT_ID":"50849","SITE":"AFETR","MEAN_ELEMENT_THEORY":"SGP4","PERIOD":"95.438","ARG_OF_PERICENTER":"74.6509","FILE":"3513976"},{"MEAN_MOTION_DOT":"0.00051697","OBJECT_NAME":"STARLINK-3312","PERIAPSIS":"538.697","INCLINATION":"53.2137","SEMIMAJOR_AXIS":"6917.987","MEAN_MOTION_DDOT":"0.0000000000000","COUNTRY_CODE":"US","RCS_SIZE":"LARGE","GP_ID":"208136422","TLE_LINE1":"1 50850U 22001AZ  22195.91667824  .00051697  00000-0  32457-2 0  9996","EPHEMERIS_TYPE":"0","CENTER_NAME":"EARTH","OBJECT_TYPE":"PAYLOAD","REF_FRAME":"TEME","OBJECT_ID":"2022-001AZ","EPOCH":"2022-07-14T22:00:00.999936","APOAPSIS":"541.006","CLASSIFICATION_TYPE":"U","TLE_LINE2":"2 50850  53.2137   6.6541 0001669  53.3580 242.4295 15.08805213  1304","MEAN_MOTION":"15.08805213","ELEMENT_SET_NO":"999","REV_AT_EPOCH":"130","TIME_SYSTEM":"UTC","LAUNCH_DATE":"2022-01-06","BSTAR":"0.00324570000000","ECCENTRICITY":"0.00016690","RA_OF_ASC_NODE":"6.6541","FILE":"3513976","ARG_OF_PERICENTER":"53.3580","PERIOD":"95.440","SITE":"AFETR","NORAD_CAT_ID":"50850","MEAN_ELEMENT_THEORY":"SGP4","MEAN_ANOMALY":"242.4295","DECAY_DATE":null},{"MEAN_MOTION_DDOT":"0.0000000000000","COUNTRY_CODE":"US","RCS_SIZE":"LARGE","GP_ID":"208137169","MEAN_MOTION_DOT":"-0.00000785","OBJECT_NAME":"STARLINK-3314","PERIAPSIS":"538.265","INCLINATION":"53.2200","SEMIMAJOR_AXIS":"6917.873","APOAPSIS":"541.210","MEAN_MOTION":"15.08842563","ELEMENT_SET_NO":"999","TLE_LINE2":"2 50851  53.2200  46.9913 0002129  68.8521 291.2698 15.08842563 28907","CLASSIFICATION_TYPE":"U","REV_AT_EPOCH":"2890","OBJECT_TYPE":"PAYLOAD","EPHEMERIS_TYPE":"0","TLE_LINE1":"1 50851U 22001BA  22195.84387757 -.00000785  00000-0 -31217-4 0  9992","CENTER_NAME":"EARTH","REF_FRAME":"TEME","OBJECT_ID":"2022-001BA","EPOCH":"2022-07-14T20:15:11.022048","ECCENTRICITY":"0.00021290","RA_OF_ASC_NODE":"46.9913","TIME_SYSTEM":"UTC","LAUNCH_DATE":"2022-01-06","BSTAR":"-0.00003121700000","MEAN_ANOMALY":"291.2698","DECAY_DATE":null,"ARG_OF_PERICENTER":"68.8521","FILE":"3513976","SITE":"AFETR","NORAD_CAT_ID":"50851","MEAN_ELEMENT_THEORY":"SGP4","PERIOD":"95.437"},{"ECCENTRICITY":"0.00019930","RA_OF_ASC_NODE":"158.0808","BSTAR":"-0.00005376500000","TIME_SYSTEM":"UTC","LAUNCH_DATE":"2022-01-19","DECAY_DATE":null,"MEAN_ANOMALY":"304.9373","PERIOD":"95.438","SITE":"AFETR","NORAD_CAT_ID":"51104","MEAN_ELEMENT_THEORY":"SGP4","FILE":"3513976","ARG_OF_PERICENTER":"55.1807","COUNTRY_CODE":"US","RCS_SIZE":"LARGE","GP_ID":"208136193","MEAN_MOTION_DDOT":"0.0000000000000","SEMIMAJOR_AXIS":"6917.885","MEAN_MOTION_DOT":"-0.00001144","PERIAPSIS":"538.371","OBJECT_NAME":"STARLINK-3366","INCLINATION":"53.2176","CLASSIFICATION_TYPE":"U","TLE_LINE2":"2 51104  53.2176 158.0808 0001993  55.1807 304.9373 15.08838452 27478","ELEMENT_SET_NO":"999","MEAN_MOTION":"15.08838452","REV_AT_EPOCH":"2747","APOAPSIS":"541.129","OBJECT_ID":"2022-005A","EPOCH":"2022-07-14T14:21:26.814528","EPHEMERIS_TYPE":"0","TLE_LINE1":"1 51104U 22005A   22195.59822702 -.00001144  00000-0 -53765-4 0  9996","CENTER_NAME":"EARTH","OBJECT_TYPE":"PAYLOAD","REF_FRAME":"TEME"},{"MEAN_MOTION_DDOT":"0.0000000000000","RCS_SIZE":"LARGE","COUNTRY_CODE":"US","GP_ID":"208136943","MEAN_MOTION_DOT":"-0.00000390","OBJECT_NAME":"STARLINK-3350","PERIAPSIS":"537.738","INCLINATION":"53.2184","SEMIMAJOR_AXIS":"6917.880","APOAPSIS":"541.752","MEAN_MOTION":"15.08840017","ELEMENT_SET_NO":"999","CLASSIFICATION_TYPE":"U","TLE_LINE2":"2 51105  53.2184 157.0273 0002901  63.1548 296.9741 15.08840017 27518","REV_AT_EPOCH":"2751","OBJECT_TYPE":"PAYLOAD","TLE_LINE1":"1 51105U 22005B   22195.83744297 -.00000390  00000-0 -63899-5 0  9998","EPHEMERIS_TYPE":"0","CENTER_NAME":"EARTH","REF_FRAME":"TEME","OBJECT_ID":"2022-005B","EPOCH":"2022-07-14T20:05:55.072608","ECCENTRICITY":"0.00029010","RA_OF_ASC_NODE":"157.0273","TIME_SYSTEM":"UTC","LAUNCH_DATE":"2022-01-19","BSTAR":"-0.00000638990000","MEAN_ANOMALY":"296.9741","DECAY_DATE":null,"ARG_OF_PERICENTER":"63.1548","FILE":"3513976","SITE":"AFETR","NORAD_CAT_ID":"51105","MEAN_ELEMENT_THEORY":"SGP4","PERIOD":"95.438"},{"DECAY_DATE":null,"MEAN_ANOMALY":"306.2628","PERIOD":"95.438","SITE":"AFETR","MEAN_ELEMENT_THEORY":"SGP4","NORAD_CAT_ID":"51106","ARG_OF_PERICENTER":"53.8567","FILE":"3513976","RA_OF_ASC_NODE":"157.9973","ECCENTRICITY":"0.00021890","BSTAR":"-0.00004469100000","TIME_SYSTEM":"UTC","LAUNCH_DATE":"2022-01-19","CLASSIFICATION_TYPE":"U","TLE_LINE2":"2 51106  53.2160 157.9973 0002189  53.8567 306.2628 15.08840253 27470","MEAN_MOTION":"15.08840253","ELEMENT_SET_NO":"999","REV_AT_EPOCH":"2747","APOAPSIS":"541.259","OBJECT_ID":"2022-005C","EPOCH":"2022-07-14T14:47:57.166368","CENTER_NAME":"EARTH","TLE_LINE1":"1 51106U 22005C   22195.61663387 -.00001000  00000-0 -44691-4 0  9992","EPHEMERIS_TYPE":"0","OBJECT_TYPE":"PAYLOAD","REF_FRAME":"TEME","RCS_SIZE":"LARGE","COUNTRY_CODE":"US","GP_ID":"208136689","MEAN_MOTION_DDOT":"0.0000000000000","SEMIMAJOR_AXIS":"6917.880","MEAN_MOTION_DOT":"-0.00001000","INCLINATION":"53.2160","PERIAPSIS":"538.230","OBJECT_NAME":"STARLINK-3176"},{"BSTAR":"-0.00009163800000","LAUNCH_DATE":"2022-01-19","TIME_SYSTEM":"UTC","ECCENTRICITY":"0.00020780","RA_OF_ASC_NODE":"168.0026","NORAD_CAT_ID":"51107","SITE":"AFETR","MEAN_ELEMENT_THEORY":"SGP4","PERIOD":"95.438","ARG_OF_PERICENTER":"56.3839","FILE":"3513976","DECAY_DATE":null,"MEAN_ANOMALY":"303.7352","SEMIMAJOR_AXIS":"6917.898","OBJECT_NAME":"STARLINK-3368","PERIAPSIS":"538.326","INCLINATION":"53.2170","MEAN_MOTION_DOT":"-0.00001746","GP_ID":"208135442","COUNTRY_CODE":"US","RCS_SIZE":"LARGE","MEAN_MOTION_DDOT":"0.0000000000000","EPOCH":"2022-07-14T14:48:01.179648","OBJECT_ID":"2022-005D","REF_FRAME":"TEME","OBJECT_TYPE":"PAYLOAD","CENTER_NAME":"EARTH","TLE_LINE1":"1 51107U 22005D   22195.61668032 -.00001746  00000-0 -91638-4 0  9995","EPHEMERIS_TYPE":"0","REV_AT_EPOCH":"2734","ELEMENT_SET_NO":"999","MEAN_MOTION":"15.08834177","CLASSIFICATION_TYPE":"U","TLE_LINE2":"2 51107  53.2170 168.0026 0002078  56.3839 303.7352 15.08834177 27341","APOAPSIS":"541.201"},{"PERIOD":"95.438","NORAD_CAT_ID":"51108","SITE":"AFETR","MEAN_ELEMENT_THEORY":"SGP4","ARG_OF_PERICENTER":"54.7968","FILE":"3513976","DECAY_DATE":null,"MEAN_ANOMALY":"305.3209","BSTAR":"-0.00007007500000","LAUNCH_DATE":"2022-01-19","TIME_SYSTEM":"UTC","ECCENTRICITY":"0.00019810","RA_OF_ASC_NODE":"157.9368","EPOCH":"2022-07-14T15:14:27.320352","OBJECT_ID":"2022-005E","REF_FRAME":"TEME","CENTER_NAME":"EARTH","TLE_LINE1":"1 51108U 22005E   22195.63503843 -.00001403  00000-0 -70075-4 0  9998","EPHEMERIS_TYPE":"0","OBJECT_TYPE":"PAYLOAD","REV_AT_EPOCH":"2748","TLE_LINE2":"2 51108  53.2179 157.9368 0001981  54.7968 305.3209 15.08826169 27480","CLASSIFICATION_TYPE":"U","MEAN_MOTION":"15.08826169","ELEMENT_SET_NO":"999","APOAPSIS":"541.158","SEMIMAJOR_AXIS":"6917.923","PERIAPSIS":"538.417","OBJECT_NAME":"STARLINK-3362","INCLINATION":"53.2179","MEAN_MOTION_DOT":"-0.00001403","GP_ID":"208135693","RCS_SIZE":"LARGE","COUNTRY_CODE":"US","MEAN_MOTION_DDOT":"0.0000000000000"},{"MEAN_ANOMALY":"306.9437","DECAY_DATE":null,"ARG_OF_PERICENTER":"53.1736","FILE":"3513976","PERIOD":"95.438","NORAD_CAT_ID":"51109","SITE":"AFETR","MEAN_ELEMENT_THEORY":"SGP4","ECCENTRICITY":"0.00019680","RA_OF_ASC_NODE":"157.5157","TIME_SYSTEM":"UTC","LAUNCH_DATE":"2022-01-19","BSTAR":"-0.00007519600000","APOAPSIS":"541.146","TLE_LINE2":"2 51109  53.2158 157.5157 0001968  53.1736 306.9437 15.08827102 27265","CLASSIFICATION_TYPE":"U","ELEMENT_SET_NO":"999","MEAN_MOTION":"15.08827102","REV_AT_EPOCH":"2726","TLE_LINE1":"1 51109U 22005F   22195.72431100 -.00001484  00000-0 -75196-4 0  9993","CENTER_NAME":"EARTH","EPHEMERIS_TYPE":"0","OBJECT_TYPE":"PAYLOAD","REF_FRAME":"TEME","OBJECT_ID":"2022-005F","EPOCH":"2022-07-14T17:23:00.470400","MEAN_MOTION_DDOT":"0.0000000000000","COUNTRY_CODE":"US","RCS_SIZE":"LARGE","GP_ID":"208136443","MEAN_MOTION_DOT":"-0.00001484","INCLINATION":"53.2158","PERIAPSIS":"538.423","OBJECT_NAME":"STARLINK-3358","SEMIMAJOR_AXIS":"6917.920"},{"MEAN_MOTION_DDOT":"0.0000000000000","RCS_SIZE":"LARGE","COUNTRY_CODE":"US","GP_ID":"208137190","MEAN_MOTION_DOT":"-0.00001573","OBJECT_NAME":"STARLINK-3344","PERIAPSIS":"538.131","INCLINATION":"53.2196","SEMIMAJOR_AXIS":"6917.920","APOAPSIS":"541.439","CLASSIFICATION_TYPE":"U","TLE_LINE2":"2 51110  53.2196 157.9639 0002391  54.7400 305.3815 15.08827019 27488","ELEMENT_SET_NO":"999","MEAN_MOTION":"15.08827019","REV_AT_EPOCH":"2748","TLE_LINE1":"1 51110U 22005G   22195.62767837 -.00001573  00000-0 -80765-4 0  9990","CENTER_NAME":"EARTH","EPHEMERIS_TYPE":"0","OBJECT_TYPE":"PAYLOAD","REF_FRAME":"TEME","OBJECT_ID":"2022-005G","EPOCH":"2022-07-14T15:03:51.411168","RA_OF_ASC_NODE":"157.9639","ECCENTRICITY":"0.00023910","TIME_SYSTEM":"UTC","LAUNCH_DATE":"2022-01-19","BSTAR":"-0.00008076500000","MEAN_ANOMALY":"305.3815","DECAY_DATE":null,"FILE":"3513976","ARG_OF_PERICENTER":"54.7400","PERIOD":"95.438","NORAD_CAT_ID":"51110","SITE":"AFETR","MEAN_ELEMENT_THEORY":"SGP4"}];
